ONEWEB-0233             
1 48795U 21045AE  25362.57435065  .00000138  00000+0  33341-3 0  9996
2 48795  87.9005 293.2900 0001670  65.2801 294.8503 13.15546473221864
ONEWEB-0190             
1 48796U 21045AF  25362.18152816  .00000141  00000+0  33916-3 0  9996
2 48796  87.9003 293.3298 0002072  54.6176 305.5147 13.15550054221884
ONEWEB-0236             
1 48797U 21045AG  25362.57924148  .00000176  00000+0  43258-3 0  9993
2 48797  87.9006 293.2621 0001680  79.5047 280.6273 13.15547162221827
ONEWEB-0248             
1 48798U 21045AH  25362.28769975 -.00000048  00000+0 -16173-3 0  9993
2 48798  87.9019 293.2855 0001580  56.8896 303.2386 13.15546634221943
ONEWEB-0225             
1 48799U 21045AJ  25362.30987851 -.00000103  00000+0 -30690-3 0  9994
2 48799  87.9001 293.3042 0002003  57.6592 302.4732 13.15546864221959
ONEWEB-0215             
1 48800U 21045AK  25362.27976285  .00000138  00000+0  33301-3 0  9990
2 48800  87.9023 293.2733 0001833  55.4318 304.6985 13.15547004221821
ONEWEB-0216             
1 48801U 21045AL  25362.51745013  .00000001  00000+0 -31188-4 0  9993
2 48801  87.9011 293.2542 0001948  75.0420 285.0926 13.15547419221867
ONEWEB-0239             
1 48802U 21045AM  25362.52220491  .00000027  00000+0  38958-4 0  9992
2 48802  87.9006 293.2676 0001563  48.3891 311.7373 13.15547490221905
